{
  "type": "FeatureCollection",
  "features": [
    {
      "type": "Feature",
      "properties": {
        "norad_id": 40115,
        "name": "WORLDVIEW-3 (WV-3)",
        "group": "resource",
        "lat": -25.532046590374556,
        "lon": 57.44672609015307,
        "alt_km": 619.7035567987268,
        "timestamp": "2025-12-07T07:31:35.960058+00:00",
        "meta_object_name": "WORLDVIEW-3 (WV-3)",
        "meta_object_id": "2014-048A",
        "meta_epoch": "2025-12-06T21:56:34.351008",
        "meta_mean_motion": 14.85489396,
        "meta_eccentricity": 0.0004346,
        "meta_inclination": 97.862,
        "meta_ra_of_asc_node": 53.268,
        "meta_arg_of_pericenter": 204.7583,
        "meta_mean_anomaly": 155.3424,
        "meta_ephemeris_type": 0,
        "meta_classification_type": "U",
        "meta_norad_cat_id": 40115,
        "meta_element_set_no": 999,
        "meta_rev_at_epoch": 61337,
        "meta_bstar": 0.00024544596,
        "meta_mean_motion_dot": 2.065e-05,
        "meta_mean_motion_ddot": 0,
        "tle_line1": "1 40115U 14048A   25340.91428647  .00002065  00000+0  24545-3 0  9998",
        "tle_line2": "2 40115  97.8620  53.2680 0004346 204.7583 155.3424 14.85489396613376"
      },
      "geometry": {
        "type": "Point",
        "coordinates": [
          57.44672609015307,
          -25.532046590374556
        ]
      }
    },
    {
      "type": "Feature",
      "properties": {
        "norad_id": 40118,
        "name": "GAOFEN-2",
        "group": "resource",
        "lat": -66.00228001228695,
        "lon": -158.03806076892096,
        "alt_km": 637.5157994514066,
        "timestamp": "2025-12-07T07:31:35.960068+00:00",
        "meta_object_name": "GAOFEN-2",
        "meta_object_id": "2014-049A",
        "meta_epoch": "2025-12-06T22:18:14.757408",
        "meta_mean_motion": 14.80592446,
        "meta_eccentricity": 0.0008386,
        "meta_inclination": 98.0393,
        "meta_ra_of_asc_node": 40.0875,
        "meta_arg_of_pericenter": 129.6938,
        "meta_mean_anomaly": 230.5015,
        "meta_ephemeris_type": 0,
        "meta_classification_type": "U",
        "meta_norad_cat_id": 40118,
        "meta_element_set_no": 999,
        "meta_rev_at_epoch": 61078,
        "meta_bstar": 0.00019897054,
        "meta_mean_motion_dot": 1.474e-05,
        "meta_mean_motion_ddot": 0,
        "tle_line1": "1 40118U 14049A   25340.92933747  .00001474  00000+0  19897-3 0  9992",
        "tle_line2": "2 40118  98.0393  40.0875 0008386 129.6938 230.5015 14.80592446610786"
      },
      "geometry": {
        "type": "Point",
        "coordinates": [
          -158.03806076892096,
          -66.00228001228695
        ]
      }
    },
    {
      "type": "Feature",
      "properties": {
        "norad_id": 40143,
        "name": "YAOGAN-21",
        "group": "resource",
        "lat": 82.58860975441517,
        "lon": -79.54528598309136,
        "alt_km": 481.7994801704517,
        "timestamp": "2025-12-07T07:31:35.960078+00:00",
        "meta_object_name": "YAOGAN-21",
        "meta_object_id": "2014-053A",
        "meta_epoch": "2025-12-06T21:40:05.785536",
        "meta_mean_motion": 15.2357274,
        "meta_eccentricity": 0.00100963,
        "meta_inclination": 97.1758,
        "meta_ra_of_asc_node": 24.4696,
        "meta_arg_of_pericenter": 59.7617,
        "meta_mean_anomaly": 300.4619,
        "meta_ephemeris_type": 0,
        "meta_classification_type": "U",
        "meta_norad_cat_id": 40143,
        "meta_element_set_no": 999,
        "meta_rev_at_epoch": 62565,
        "meta_bstar": 0.00040776447,
        "meta_mean_motion_dot": 9.702e-05,
        "meta_mean_motion_ddot": 0,
        "tle_line1": "1 40143U 14053A   25340.90284474  .00009702  00000+0  40776-3 0  9991",
        "tle_line2": "2 40143  97.1758  24.4696 0010096  59.7617 300.4619 15.23572740625656"
      },
      "geometry": {
        "type": "Point",
        "coordinates": [
          -79.54528598309136,
          82.58860975441517
        ]
      }
    },
    {
      "type": "Feature",
      "properties": {
        "norad_id": 40275,
        "name": "YAOGAN-22",
        "group": "resource",
        "lat": 24.443595062655923,
        "lon": 119.70677894677138,
        "alt_km": 1203.456883890828,
        "timestamp": "2025-12-07T07:31:35.960088+00:00",
        "meta_object_name": "YAOGAN-22",
        "meta_object_id": "2014-063A",
        "meta_epoch": "2025-12-06T22:16:27.100416",
        "meta_mean_motion": 13.15522448,
        "meta_eccentricity": 0.0005912,
        "meta_inclination": 100.7418,
        "meta_ra_of_asc_node": 124.2656,
        "meta_arg_of_pericenter": 262.2961,
        "meta_mean_anomaly": 97.7479,
        "meta_ephemeris_type": 0,
        "meta_classification_type": "U",
        "meta_norad_cat_id": 40275,
        "meta_element_set_no": 999,
        "meta_rev_at_epoch": 53453,
        "meta_bstar": 3.086505e-05,
        "meta_mean_motion_dot": -3.5e-07,
        "meta_mean_motion_ddot": 0,
        "tle_line1": "1 40275U 14063A   25340.92809144 -.00000035  00000+0  30865-4 0  9997",
        "tle_line2": "2 40275 100.7418 124.2656 0005912 262.2961  97.7479 13.15522448534530"
      },
      "geometry": {
        "type": "Point",
        "coordinates": [
          119.70677894677138,
          24.443595062655923
        ]
      }
    },
    {
      "type": "Feature",
      "properties": {
        "norad_id": 40298,
        "name": "ASNARO",
        "group": "resource",
        "lat": -41.59561782150765,
        "lon": -129.20064387681904,
        "alt_km": 514.2298040217938,
        "timestamp": "2025-12-07T07:31:35.960098+00:00",
        "meta_object_name": "ASNARO",
        "meta_object_id": "2014-070A",
        "meta_epoch": "2025-12-06T21:04:09.273504",
        "meta_mean_motion": 15.19310963,
        "meta_eccentricity": 0.00053447,
        "meta_inclination": 97.3661,
        "meta_ra_of_asc_node": 56.9687,
        "meta_arg_of_pericenter": 138.0934,
        "meta_mean_anomaly": 222.0711,
        "meta_ephemeris_type": 0,
        "meta_classification_type": "U",
        "meta_norad_cat_id": 40298,
        "meta_element_set_no": 999,
        "meta_rev_at_epoch": 61480,
        "meta_bstar": 0.00075581118,
        "meta_mean_motion_dot": 0.00015918,
        "meta_mean_motion_ddot": 0,
        "tle_line1": "1 40298U 14070A   25340.87788511  .00015918  00000+0  75581-3 0  9996",
        "tle_line2": "2 40298  97.3661  56.9687 0005344 138.0934 222.0711 15.19310963614804"
      },
      "geometry": {
        "type": "Point",
        "coordinates": [
          -129.20064387681904,
          -41.59561782150765
        ]
      }
    },
    {
      "type": "Feature",
      "properties": {
        "norad_id": 40310,
        "name": "YAOGAN-24",
        "group": "resource",
        "lat": -42.189610863900306,
        "lon": 119.81605582595299,
        "alt_km": 657.7772965594459,
        "timestamp": "2025-12-07T07:31:35.960109+00:00",
        "meta_object_name": "YAOGAN-24",
        "meta_object_id": "2014-072A",
        "meta_epoch": "2025-12-06T21:57:33.866784",
        "meta_mean_motion": 14.761578,
        "meta_eccentricity": 0.00144526,
        "meta_inclination": 98.1225,
        "meta_ra_of_asc_node": 111.9775,
        "meta_arg_of_pericenter": 156.0642,
        "meta_mean_anomaly": 204.1242,
        "meta_ephemeris_type": 0,
        "meta_classification_type": "U",
        "meta_norad_cat_id": 40310,
        "meta_element_set_no": 999,
        "meta_rev_at_epoch": 59535,
        "meta_bstar": 0.00027080656,
        "meta_mean_motion_dot": 1.822e-05,
        "meta_mean_motion_ddot": 0,
        "tle_line1": "1 40310U 14072A   25340.91497531  .00001822  00000+0  27081-3 0  9998",
        "tle_line2": "2 40310  98.1225 111.9775 0014452 156.0642 204.1242 14.76157800595359"
      },
      "geometry": {
        "type": "Point",
        "coordinates": [
          119.81605582595299,
          -42.189610863900306
        ]
      }
    },
    {
      "type": "Feature",
      "properties": {
        "norad_id": 40336,
        "name": "CBERS 4",
        "group": "resource",
        "lat": 48.47234477226065,
        "lon": -130.95893519852527,
        "alt_km": 767.9164138566048,
        "timestamp": "2025-12-07T07:31:35.960119+00:00",
        "meta_object_name": "CBERS 4",
        "meta_object_id": "2014-079A",
        "meta_epoch": "2025-12-06T22:33:19.697184",
        "meta_mean_motion": 14.3551438,
        "meta_eccentricity": 0.00015164,
        "meta_inclination": 98.3318,
        "meta_ra_of_asc_node": 39.155,
        "meta_arg_of_pericenter": 120.8506,
        "meta_mean_anomaly": 239.283,
        "meta_ephemeris_type": 0,
        "meta_classification_type": "U",
        "meta_norad_cat_id": 40336,
        "meta_element_set_no": 999,
        "meta_rev_at_epoch": 57637,
        "meta_bstar": 0.00011473323,
        "meta_mean_motion_dot": 2.88e-06,
        "meta_mean_motion_ddot": 0,
        "tle_line1": "1 40336U 14079A   25340.93981131  .00000288  00000+0  11473-3 0  9992",
        "tle_line2": "2 40336  98.3318  39.1550 0001516 120.8506 239.2830 14.35514380576377"
      },
      "geometry": {
        "type": "Point",
        "coordinates": [
          -130.95893519852527,
          48.47234477226065
        ]
      }
    }
  ]
}